PROBA-1                 
1 26958U 01049B   26195.81455252  .00001241  00000+0  83288-4 0  9999
2 26958  97.9602 205.3130 0055816  31.0866 329.3643 15.07614900347780
CUTE-1 (CO-55)          
1 27844U 03031E   26195.57423980  .00000140  00000+0  79585-4 0  9995
2 27844  98.6742 203.7891 0010828 104.2879 255.9503 14.24351310195573
CUBESAT XI-IV (CO-57)   
1 27848U 03031J   26195.57646244  .00000117  00000+0  70501-4 0  9992
2 27848  98.6774 203.4819 0010527 121.1058 239.1154 14.23634354195276
APRIZESAT 4             
1 35684U 09041D   26195.76890347  .00000319  00000+0  44861-4 0  9996
2 35684  98.1404 271.6382 0042209 230.9211 128.8245 14.83913443915452
APRIZESAT 3             
1 35686U 09041F   26195.45006053  .00000971  00000+0  88768-4 0  9995
2 35686  98.2098 349.9859 0060857 338.4003  21.4651 14.96309686920451
PROBA-2                 
1 36037U 09059B   26195.47551579  .00000076  00000+0  28226-4 0  9994
2 36037  98.2458  18.4511 0012984 190.9949 169.0966 14.54873530885493
APRIZESAT 5             
1 37792U 11044E   26195.77346726  .00000392  00000+0  56922-4 0  9994
2 37792  98.2449 129.5970 0050699 274.1000  85.4418 14.81127189802879
APRIZESAT 6             
1 37793U 11044F   26195.72035222  .00000369  00000+0  59580-4 0  9993
2 37793  98.2339 106.7799 0043104 359.7738  61.0492 14.76956350801218
PROBA-V                 
1 39159U 13021A   26195.81127734  .00000017  00000+0  25326-4 0  9999
2 39159  98.3606 173.0569 0005264  60.8474 299.3232 14.23603358685046
APRIZESAT 7             
1 39416U 13066A   26195.85969955  .00000450  00000+0  49891-4 0  9991
2 39416  97.7722 148.6847 0037203 118.3821 242.1156 14.91618710685352
APRIZESAT 8             
1 39425U 13066K   26195.85274640  .00000368  00000+0  45858-4 0  9998
2 39425  97.8230 142.9372 0045459 193.0108 166.9939 14.87696214683784
BUGSAT-1 (TITA)         
1 40014U 14033E   26195.82893183  .00002460  00000+0  13119-3 0  9994
2 40014  98.0436 289.9999 0029124  87.0297 273.4266 15.15877225660024
SAUDISAT 4              
1 40016U 14033G   26195.84659463  .00000226  00000+0  36671-4 0  9996
2 40016  97.7617 341.0302 0044287 345.2138  14.7775 14.79575411650167
APRIZESAT 9             
1 40018U 14033J   26195.83206823  .00000323  00000+0  54733-4 0  9992
2 40018  97.9094 328.3600 0067435 111.0755 249.7682 14.74252408647631
APRIZESAT 10            
1 40019U 14033K   26195.81369992  .00000296  00000+0  54291-4 0  9996
2 40019  97.9681 322.1618 0078710 184.5639 175.4859 14.70910654646314
TECHDEMOSAT-1 (TDS-1)   
1 40076U 14037H   26195.85995154  .00004493  00000+0  25396-3 0  9998
2 40076  98.3824 190.8256 0006854 159.8329 200.3172 15.13676709652412
TECHNOSAT               
1 42829U 17042E   26195.37528415  .00001874  00000+0  13547-3 0  9999
2 42829  97.4314 352.0048 0017510   6.1550 353.9889 15.05108329490796
FLYING LAPTOP           
1 42831U 17042G   26195.84681763  .00002352  00000+0  18652-3 0  9994
2 42831  97.4797 350.3387 0019713  33.6563 326.5909 15.01312785490605
HAWK-A                  
1 43765U 18099H   26195.71348039  .00003863  00000+0  15537-3 0  9993
2 43765  97.3898 247.5935 0034668 185.6155 174.4699 15.24960794417294
HAWK-B                  
1 43794U 18099AN  26195.70236875  .00003433  00000+0  14663-3 0  9990
2 43794  97.3949 246.9395 0031313 203.8074 156.1716 15.23111515417221
HAWK-C                  
1 43799U 18099AT  26195.82360171  .00004874  00000+0  17443-3 0  9994
2 43799  97.3875 248.7518 0040236 185.1116 174.9718 15.28486840418136
SALSAT                  
1 46495U 20068K   26195.54877328  .00004163  00000+0  14541-3 0  9992
2 46495  97.8856 200.2874 0009148 195.2534 164.8431 15.30166467319545
HAWK-2C                 
1 47502U 21006CT  26195.66509265  .00003786  00000+0  11375-3 0  9992
2 47502  97.2266 239.4301 0008655 102.3120 257.9093 15.34984988303715
HAWK-2A                 
1 47505U 21006CW  26195.66732211  .00003865  00000+0  11606-3 0  9999
2 47505  97.2307 240.1261 0008194 105.6995 254.5153 15.35000088303713
HAWK-2B                 
1 47508U 21006CZ  26195.66088926  .00004408  00000+0  13145-3 0  9993
2 47508  97.2177 238.4084 0008731 104.0713 256.1502 15.35131464303711
HAWK-3B                 
1 48931U 21059BE  26195.84557896  .00032217  00000+0  24905-3 0  9994
2 48931  97.6629  35.2168 0004409 199.2120 160.8977 15.71842993282191
HAWK-3C                 
1 48948U 21059BX  26195.52695099  .00028898  00000+0  22376-3 0  9995
2 48948  97.6746  40.5999 0004601 201.7329 158.3739 15.71823650282146
HAWK-3A                 
1 48957U 21059CG  26195.52683910  .00029930  00000+0  23169-3 0  9993
2 48957  97.6690  37.7828 0004534 203.2182 156.8876 15.71823724282149
HAWK-5C                 
1 52754U 22057Y   26195.83518062  .00010459  00000+0  17360-3 0  9993
2 52754  97.6611 357.3087 0002826 348.0918  12.0266 15.52316602230631
HAWK-5B                 
1 52756U 22057AA  26195.83499591  .00010576  00000+0  17553-3 0  9994
2 52756  97.6625 355.6621 0003512 333.5551  26.5521 15.52314044230630
