OBJECT_NAME,OBJECT_ID,EPOCH,MEAN_MOTION,ECCENTRICITY,INCLINATION,RA_OF_ASC_NODE,ARG_OF_PERICENTER,MEAN_ANOMALY,EPHEMERIS_TYPE,CLASSIFICATION_TYPE,NORAD_CAT_ID,ELEMENT_SET_NO,REV_AT_EPOCH,BSTAR,MEAN_MOTION_DOT,MEAN_MOTION_DDOT
PROBA-1,2001-049B,2026-07-14T19:32:57.337728,15.07614900,.0055816,97.9602,205.3130,31.0866,329.3643,0,U,26958,999,34778,.83288E-4,.1241E-4,0
CUTE-1 (CO-55),2003-031E,2026-07-14T13:46:54.318720,14.24351310,.0010828,98.6742,203.7891,104.2879,255.9503,0,U,27844,999,19557,.79585E-4,.14E-5,0
CUBESAT XI-IV (CO-57),2003-031J,2026-07-14T13:50:06.354816,14.23634354,.0010527,98.6774,203.4819,121.1058,239.1154,0,U,27848,999,19527,.70501E-4,.117E-5,0
APRIZESAT 4,2009-041D,2026-07-14T18:27:13.259808,14.83913443,.0042209,98.1404,271.6382,230.9211,128.8245,0,U,35684,999,91545,.44861E-4,.319E-5,0
APRIZESAT 3,2009-041F,2026-07-14T10:48:05.229792,14.96309686,.00608574,98.2098,349.9859,338.4003,21.4651,0,U,35686,999,92045,.88768408E-4,.971E-5,0
PROBA-2,2009-059B,2026-07-14T11:24:44.564256,14.54873530,.00129843,98.2458,18.4511,190.9949,169.0966,0,U,36037,999,88549,.28226467E-4,.76E-6,0
APRIZESAT 5,2011-044E,2026-07-14T18:33:47.571264,14.81127189,.0050699,98.2449,129.5970,274.1000,85.4418,0,U,37792,999,80287,.56922E-4,.392E-5,0
APRIZESAT 6,2011-044F,2026-07-14T17:17:18.431808,14.76956350,.0043104,98.2339,106.7799,359.7738,61.0492,0,U,37793,999,80121,.5958E-4,.369E-5,0
PROBA-V,2013-021A,2026-07-14T19:28:14.362176,14.23603358,.0005264,98.3606,173.0569,60.8474,299.3232,0,U,39159,999,68504,.25326E-4,.17E-6,0
APRIZESAT 7,2013-066A,2026-07-14T20:37:58.041120,14.91618710,.0037203,97.7722,148.6847,118.3821,242.1156,0,U,39416,999,68535,.49891E-4,.45E-5,0
APRIZESAT 8,2013-066K,2026-07-14T20:27:57.288960,14.87696214,.0045459,97.8230,142.9372,193.0108,166.9939,0,U,39425,999,68378,.45858E-4,.368E-5,0
BUGSAT-1 (TITA),2014-033E,2026-07-14T19:53:39.710112,15.15877225,.0029124,98.0436,289.9999,87.0297,273.4266,0,U,40014,999,66002,.13119E-3,.246E-4,0
SAUDISAT 4,2014-033G,2026-07-14T20:19:05.776032,14.79575411,.0044287,97.7617,341.0302,345.2138,14.7775,0,U,40016,999,65016,.36671E-4,.226E-5,0
APRIZESAT 9,2014-033J,2026-07-14T19:58:10.695072,14.74252408,.0067435,97.9094,328.3600,111.0755,249.7682,0,U,40018,999,64763,.54733E-4,.323E-5,0
APRIZESAT 10,2014-033K,2026-07-14T19:31:43.673088,14.70910654,.007871,97.9681,322.1618,184.5639,175.4859,0,U,40019,999,64631,.54291E-4,.296E-5,0
TECHDEMOSAT-1 (TDS-1),2014-037H,2026-07-14T20:38:19.813056,15.13676709,.0006854,98.3824,190.8256,159.8329,200.3172,0,U,40076,999,65241,.25396E-3,.4493E-4,0
TECHNOSAT,2017-042E,2026-07-14T09:00:24.550560,15.05108329,.00175108,97.4314,352.0048,6.1550,353.9889,0,U,42829,999,49079,.13546681E-3,.1874E-4,0
FLYING LAPTOP,2017-042G,2026-07-14T20:19:25.043232,15.01312785,.0019713,97.4797,350.3387,33.6563,326.5909,0,U,42831,999,49060,.18652E-3,.2352E-4,0
HAWK-A,2018-099H,2026-07-14T17:07:24.705696,15.24960794,.0034668,97.3898,247.5935,185.6155,174.4699,0,U,43765,999,41729,.15537E-3,.3863E-4,0
HAWK-B,2018-099AN,2026-07-14T16:51:24.660000,15.23111515,.0031313,97.3949,246.9395,203.8074,156.1716,0,U,43794,999,41722,.14663E-3,.3433E-4,0
HAWK-C,2018-099AT,2026-07-14T19:45:59.187744,15.28486840,.0040236,97.3875,248.7518,185.1116,174.9718,0,U,43799,999,41813,.17443E-3,.4874E-4,0
SALSAT,2020-068K,2026-07-14T13:10:14.011392,15.30166467,.0009148,97.8856,200.2874,195.2534,164.8431,0,U,46495,999,31954,.14541E-3,.4163E-4,0
HAWK-2C,2021-006CT,2026-07-14T15:57:44.004960,15.34984988,.0008655,97.2266,239.4301,102.3120,257.9093,0,U,47502,999,30371,.11375E-3,.3786E-4,0
HAWK-2A,2021-006CW,2026-07-14T16:00:56.630304,15.35000088,.0008194,97.2307,240.1261,105.6995,254.5153,0,U,47505,999,30371,.11606E-3,.3865E-4,0
HAWK-2B,2021-006CZ,2026-07-14T15:51:40.832064,15.35131464,.0008731,97.2177,238.4084,104.0713,256.1502,0,U,47508,999,30371,.13145E-3,.4408E-4,0
HAWK-3B,2021-059BE,2026-07-14T20:17:38.022144,15.71842993,.0004409,97.6629,35.2168,199.2120,160.8977,0,U,48931,999,28219,.24905E-3,.32217E-3,0
HAWK-3C,2021-059BX,2026-07-14T12:38:48.565536,15.71823650,.00046011,97.6746,40.5999,201.7329,158.3739,0,U,48948,999,28214,.22375579E-3,.28898E-3,0
HAWK-3A,2021-059CG,2026-07-14T12:38:38.898240,15.71823724,.00045348,97.6690,37.7828,203.2182,156.8876,0,U,48957,999,28214,.23168963E-3,.2993E-3,0
HAWK-5C,2022-057Y,2026-07-14T20:02:39.605568,15.52316602,.0002826,97.6611,357.3087,348.0918,12.0266,0,U,52754,999,23063,.1736E-3,.10459E-3,0
HAWK-5B,2022-057AA,2026-07-14T20:02:23.646624,15.52314044,.0003512,97.6625,355.6621,333.5551,26.5521,0,U,52756,999,23063,.17553E-3,.10576E-3,0
